CCSDS_OMM_VERS = 2.0
CREATION_DATE  = 
ORIGINATOR     = 

OBJECT_NAME    = SL-16 R/B
OBJECT_ID      = 1998-045B
CENTER_NAME    = EARTH
REF_FRAME      = TEME
TIME_SYSTEM    = UTC
MEAN_ELEMENT_THEORY = SGP/SGP4

EPOCH          = 2026-03-13T07:36:05.728608
MEAN_MOTION    = 14.16192002
ECCENTRICITY   = .00069726
INCLINATION    = 71.0121
RA_OF_ASC_NODE = 173.9471
ARG_OF_PERICENTER = 2.5500
MEAN_ANOMALY   = 357.5658

EPHEMERIS_TYPE = 0
CLASSIFICATION_TYPE = U
NORAD_CAT_ID   = 25407
ELEMENT_SET_NO = 999
REV_AT_EPOCH   = 42761
BSTAR          = .17501371E-3
MEAN_MOTION_DOT = .299E-5
MEAN_MOTION_DDOT = 0

CCSDS_OMM_VERS = 2.0
CREATION_DATE  = 
ORIGINATOR     = 

OBJECT_NAME    = ISS (ZARYA)
OBJECT_ID      = 1998-067A
CENTER_NAME    = EARTH
REF_FRAME      = TEME
TIME_SYSTEM    = UTC
MEAN_ELEMENT_THEORY = SGP/SGP4

EPOCH          = 2026-03-13T09:14:46.936608
MEAN_MOTION    = 15.48625615
ECCENTRICITY   = .00079096
INCLINATION    = 51.6324
RA_OF_ASC_NODE = 54.0842
ARG_OF_PERICENTER = 188.2233
MEAN_ANOMALY   = 171.8627

EPHEMERIS_TYPE = 0
CLASSIFICATION_TYPE = U
NORAD_CAT_ID   = 25544
ELEMENT_SET_NO = 999
REV_AT_EPOCH   = 55690
BSTAR          = .19895216E-3
MEAN_MOTION_DOT = .10392E-3
MEAN_MOTION_DDOT = 0

CCSDS_OMM_VERS = 2.0
CREATION_DATE  = 
ORIGINATOR     = 

OBJECT_NAME    = CZ-4B R/B
OBJECT_ID      = 1999-025C
CENTER_NAME    = EARTH
REF_FRAME      = TEME
TIME_SYSTEM    = UTC
MEAN_ELEMENT_THEORY = SGP/SGP4

EPOCH          = 2026-03-13T13:35:00.348864
MEAN_MOTION    = 14.18266162
ECCENTRICITY   = .00365378
INCLINATION    = 98.6619
RA_OF_ASC_NODE = 116.7556
ARG_OF_PERICENTER = 335.3507
MEAN_ANOMALY   = 189.7259

EPHEMERIS_TYPE = 0
CLASSIFICATION_TYPE = U
NORAD_CAT_ID   = 25732
ELEMENT_SET_NO = 999
REV_AT_EPOCH   = 38871
BSTAR          = .49325125E-4
MEAN_MOTION_DOT = .59E-6
MEAN_MOTION_DDOT = 0

CCSDS_OMM_VERS = 2.0
CREATION_DATE  = 
ORIGINATOR     = 

OBJECT_NAME    = OKEAN-O
OBJECT_ID      = 1999-039A
CENTER_NAME    = EARTH
REF_FRAME      = TEME
TIME_SYSTEM    = UTC
MEAN_ELEMENT_THEORY = SGP/SGP4

EPOCH          = 2026-03-13T04:00:13.480416
MEAN_MOTION    = 14.80341717
ECCENTRICITY   = .00011474
INCLINATION    = 97.9434
RA_OF_ASC_NODE = 132.0228
ARG_OF_PERICENTER = 70.8180
MEAN_ANOMALY   = 289.3156

EPHEMERIS_TYPE = 0
CLASSIFICATION_TYPE = U
NORAD_CAT_ID   = 25860
ELEMENT_SET_NO = 999
REV_AT_EPOCH   = 43490
BSTAR          = .11270228E-3
MEAN_MOTION_DOT = .807E-5
MEAN_MOTION_DDOT = 0

CCSDS_OMM_VERS = 2.0
CREATION_DATE  = 
ORIGINATOR     = 

OBJECT_NAME    = SL-16 R/B
OBJECT_ID      = 1999-039B
CENTER_NAME    = EARTH
REF_FRAME      = TEME
TIME_SYSTEM    = UTC
MEAN_ELEMENT_THEORY = SGP/SGP4

EPOCH          = 2026-03-13T03:26:30.776928
MEAN_MOTION    = 14.81736975
ECCENTRICITY   = .00136064
INCLINATION    = 97.9960
RA_OF_ASC_NODE = 131.2351
ARG_OF_PERICENTER = 243.7187
MEAN_ANOMALY   = 116.2628

EPHEMERIS_TYPE = 0
CLASSIFICATION_TYPE = U
NORAD_CAT_ID   = 25861
ELEMENT_SET_NO = 999
REV_AT_EPOCH   = 43737
BSTAR          = .93182234E-4
MEAN_MOTION_DOT = .681E-5
MEAN_MOTION_DDOT = 0

CCSDS_OMM_VERS = 2.0
CREATION_DATE  = 
ORIGINATOR     = 

OBJECT_NAME    = DELTA 2 R/B
OBJECT_ID      = 1999-041E
CENTER_NAME    = EARTH
REF_FRAME      = TEME
TIME_SYSTEM    = UTC
MEAN_ELEMENT_THEORY = SGP/SGP4

EPOCH          = 2026-03-13T14:50:39.382368
MEAN_MOTION    = 14.11851195
ECCENTRICITY   = .05024648
INCLINATION    = 51.7621
RA_OF_ASC_NODE = 285.5874
ARG_OF_PERICENTER = 0.0188
MEAN_ANOMALY   = 0.0685

EPHEMERIS_TYPE = 0
CLASSIFICATION_TYPE = U
NORAD_CAT_ID   = 25876
ELEMENT_SET_NO = 999
REV_AT_EPOCH   = 36358
BSTAR          = .27312432E-3
MEAN_MOTION_DOT = .146E-4
MEAN_MOTION_DDOT = 0

CCSDS_OMM_VERS = 2.0
CREATION_DATE  = 
ORIGINATOR     = 

OBJECT_NAME    = HELIOS 1B
OBJECT_ID      = 1999-064A
CENTER_NAME    = EARTH
REF_FRAME      = TEME
TIME_SYSTEM    = UTC
MEAN_ELEMENT_THEORY = SGP/SGP4

EPOCH          = 2026-03-13T06:41:06.826272
MEAN_MOTION    = 14.87715338
ECCENTRICITY   = .00024103
INCLINATION    = 98.1688
RA_OF_ASC_NODE = 334.6271
ARG_OF_PERICENTER = 70.5247
MEAN_ANOMALY   = 289.6228

EPHEMERIS_TYPE = 0
CLASSIFICATION_TYPE = U
NORAD_CAT_ID   = 25977
ELEMENT_SET_NO = 999
REV_AT_EPOCH   = 68579
BSTAR          = .24634455E-3
MEAN_MOTION_DOT = .2187E-4
MEAN_MOTION_DDOT = 0

CCSDS_OMM_VERS = 2.0
CREATION_DATE  = 
ORIGINATOR     = 

OBJECT_NAME    = TERRA
OBJECT_ID      = 1999-068A
CENTER_NAME    = EARTH
REF_FRAME      = TEME
TIME_SYSTEM    = UTC
MEAN_ELEMENT_THEORY = SGP/SGP4

EPOCH          = 2026-03-13T15:18:45.219168
MEAN_MOTION    = 14.61019551
ECCENTRICITY   = .00029332
INCLINATION    = 97.9586
RA_OF_ASC_NODE = 125.9218
ARG_OF_PERICENTER = 142.4605
MEAN_ANOMALY   = 18.8470

EPHEMERIS_TYPE = 0
CLASSIFICATION_TYPE = U
NORAD_CAT_ID   = 25994
ELEMENT_SET_NO = 999
REV_AT_EPOCH   = 39565
BSTAR          = .11683199E-3
MEAN_MOTION_DOT = .529E-5
MEAN_MOTION_DDOT = 0

CCSDS_OMM_VERS = 2.0
CREATION_DATE  = 
ORIGINATOR     = 

OBJECT_NAME    = SL-16 R/B
OBJECT_ID      = 2000-006B
CENTER_NAME    = EARTH
REF_FRAME      = TEME
TIME_SYSTEM    = UTC
MEAN_ELEMENT_THEORY = SGP/SGP4

EPOCH          = 2026-03-13T07:59:38.410944
MEAN_MOTION    = 14.15825076
ECCENTRICITY   = .00165399
INCLINATION    = 71.0005
RA_OF_ASC_NODE = 90.1760
ARG_OF_PERICENTER = 184.8331
MEAN_ANOMALY   = 175.2635

EPHEMERIS_TYPE = 0
CLASSIFICATION_TYPE = U
NORAD_CAT_ID   = 26070
ELEMENT_SET_NO = 999
REV_AT_EPOCH   = 34907
BSTAR          = -.73708334E-4
MEAN_MOTION_DOT = -.193E-5
MEAN_MOTION_DDOT = 0

CCSDS_OMM_VERS = 2.0
CREATION_DATE  = 
ORIGINATOR     = 

OBJECT_NAME    = TITAN 4B R/B
OBJECT_ID      = 2000-047B
CENTER_NAME    = EARTH
REF_FRAME      = TEME
TIME_SYSTEM    = UTC
MEAN_ELEMENT_THEORY = SGP/SGP4

EPOCH          = 2026-03-13T11:21:24.670080
MEAN_MOTION    = 15.09604981
ECCENTRICITY   = .00386742
INCLINATION    = 67.9902
RA_OF_ASC_NODE = 29.8705
ARG_OF_PERICENTER = 30.9476
MEAN_ANOMALY   = 329.3941

EPHEMERIS_TYPE = 0
CLASSIFICATION_TYPE = U
NORAD_CAT_ID   = 26474
ELEMENT_SET_NO = 999
REV_AT_EPOCH   = 39348
BSTAR          = .33864781E-3
MEAN_MOTION_DOT = .5419E-4
MEAN_MOTION_DDOT = 0

CCSDS_OMM_VERS = 2.0
CREATION_DATE  = 
ORIGINATOR     = 

OBJECT_NAME    = ENVISAT
OBJECT_ID      = 2002-009A
CENTER_NAME    = EARTH
REF_FRAME      = TEME
TIME_SYSTEM    = UTC
MEAN_ELEMENT_THEORY = SGP/SGP4

EPOCH          = 2026-03-13T09:17:54.179232
MEAN_MOTION    = 14.39038451
ECCENTRICITY   = .00013243
INCLINATION    = 98.3733
RA_OF_ASC_NODE = 25.8968
ARG_OF_PERICENTER = 83.1865
MEAN_ANOMALY   = 85.2937

EPHEMERIS_TYPE = 0
CLASSIFICATION_TYPE = U
NORAD_CAT_ID   = 27386
ELEMENT_SET_NO = 999
REV_AT_EPOCH   = 25970
BSTAR          = .62281108E-4
MEAN_MOTION_DOT = .15E-5
MEAN_MOTION_DDOT = 0

CCSDS_OMM_VERS = 2.0
CREATION_DATE  = 
ORIGINATOR     = 

OBJECT_NAME    = IDEFIX & ARIANE 42P R/B
OBJECT_ID      = 2002-021B
CENTER_NAME    = EARTH
REF_FRAME      = TEME
TIME_SYSTEM    = UTC
MEAN_ELEMENT_THEORY = SGP/SGP4

EPOCH          = 2026-03-13T06:31:00.896160
MEAN_MOTION    = 14.31029033
ECCENTRICITY   = .00117854
INCLINATION    = 98.5870
RA_OF_ASC_NODE = 10.8350
ARG_OF_PERICENTER = 171.5681
MEAN_ANOMALY   = 188.5702

EPHEMERIS_TYPE = 0
CLASSIFICATION_TYPE = U
NORAD_CAT_ID   = 27422
ELEMENT_SET_NO = 999
REV_AT_EPOCH   = 24453
BSTAR          = .14131721E-3
MEAN_MOTION_DOT = .328E-5
MEAN_MOTION_DDOT = 0

